{
    "links": {
        "self": "http://www.neowsapp.com/rest/v1/neo/3788036?api_key=iIulBulltgU6a56xZRHN4H3l9WmuAYTsLGpBGhQ2"
    },
    "id": "3788036",
    "neo_reference_id": "3788036",
    "name": "(2017 UQ5)",
    "designation": "2017 UQ5",
    "nasa_jpl_url": "http://ssd.jpl.nasa.gov/sbdb.cgi?sstr=3788036",
    "absolute_magnitude_h": 26.9,
    "estimated_diameter": {
        "kilometers": {
            "estimated_diameter_min": 0.0110803882,
            "estimated_diameter_max": 0.0247765013
        },
        "meters": {
            "estimated_diameter_min": 11.0803882126,
            "estimated_diameter_max": 24.7765012606
        },
        "miles": {
            "estimated_diameter_min": 0.0068850319,
            "estimated_diameter_max": 0.0153953994
        },
        "feet": {
            "estimated_diameter_min": 36.3529808636,
            "estimated_diameter_max": 81.2877363957
        }
    },
    "is_potentially_hazardous_asteroid": false,
    "close_approach_data": [
        {
            "close_approach_date": "2008-08-29",
            "close_approach_date_full": "2008-Aug-29 12:58",
            "epoch_date_close_approach": 1220014680000,
            "relative_velocity": {
                "kilometers_per_second": "16.6444597929",
                "kilometers_per_hour": "59920.0552543122",
                "miles_per_hour": "37231.9921106586"
            },
            "miss_distance": {
                "astronomical": "0.4735109756",
                "lunar": "184.1957695084",
                "kilometers": "70836233.371381972",
                "miles": "44015594.3867443336"
            },
            "orbiting_body": "Earth"
        },
        {
            "close_approach_date": "2017-10-19",
            "close_approach_date_full": "2017-Oct-19 07:53",
            "epoch_date_close_approach": 1508399580000,
            "relative_velocity": {
                "kilometers_per_second": "4.7355514073",
                "kilometers_per_hour": "17047.9850662166",
                "miles_per_hour": "10592.95494295"
            },
            "miss_distance": {
                "astronomical": "0.0513773267",
                "lunar": "19.9857800863",
                "kilometers": "7685938.640614129",
                "miles": "4775820.8135238202"
            },
            "orbiting_body": "Earth"
        }
    ],
    "orbital_data": {
        "orbit_id": "1",
        "orbit_determination_date": "2017-10-26 15:12:07",
        "first_observation_date": "2017-10-22",
        "last_observation_date": "2017-10-26",
        "data_arc_in_days": 4,
        "observations_used": 30,
        "orbit_uncertainty": "8",
        "minimum_orbit_intersection": ".0512503",
        "jupiter_tisserand_invariant": "4.511",
        "epoch_osculation": "2458049.5",
        "eccentricity": ".296968190581937",
        "semi_major_axis": "1.488624652148477",
        "inclination": "6.14376781060807",
        "ascending_node_longitude": "30.22256915452254",
        "orbital_period": "663.4011759950396",
        "perihelion_distance": "1.046550482744278",
        "perihelion_argument": "354.1747451081942",
        "aphelion_distance": "1.930698821552675",
        "perihelion_time": "2458044.572798845105",
        "mean_anomaly": "2.673785455839263",
        "mean_motion": ".5426580672849031",
        "equinox": "J2000",
        "orbit_class": {
            "orbit_class_type": "AMO",
            "orbit_class_description": "Near-Earth asteroid orbits similar to that of 1221 Amor",
            "orbit_class_range": "1.017 AU < q (perihelion) < 1.3 AU"
        }
    },
    "is_sentry_object": false
}